COSMOS 2251 DEB         
1 38197U 93036BSM 26061.11195297  .00029049  00000+0  36128-2 0  9994
2 38197  73.9344 200.7542 0116214  57.5557 303.6792 14.77688778869263
COSMOS 2251 DEB         
1 38199U 93036BSP 26058.29189162  .00000449  00000+0  36752-3 0  9992
2 38199  73.9553 296.3904 0368960 208.0110 150.0713 13.64934306620667
COSMOS 2251 DEB         
1 38208U 93036BSY 26063.03807501  .00026391  00000+0  28859-2 0  9997
2 38208  74.0029 276.9959 0002576 336.9376 174.2501 14.87737029723661
COSMOS 2251 DEB         
1 38212U 93036BTC 26061.28397450  .00002754  00000+0  35745-3 0  9994
2 38212  74.0500 280.5392 0092975 325.3940  34.1205 14.78274571824859
COSMOS 2251 DEB         
1 38220U 93036BTL 26062.96038484  .00054639  00000+0  43937-2 0  9998
2 38220  74.0103 263.9510 0003298 226.6279 133.4633 14.99709159725858
COSMOS 2251 DEB         
1 38479U 93036BTP 26063.26265138  .00003423  00000+0  10706-2 0  9999
2 38479  74.0123  33.6396 0078904 125.8730 300.6999 14.39302078658602
COSMOS 2251 DEB         
1 38481U 93036BTR 26058.73166242  .00002616  00000+0  15662-2 0  9993
2 38481  73.9303 234.4494 0230164 159.5246 201.5301 13.95198321601347
COSMOS 2251 DEB         
1 38483U 93036BTT 26058.77231368  .00001905  00000+0  70862-3 0  9995
2 38483  74.2588 233.8114 0113444 316.0658  43.1513 14.29234836645789
COSMOS 2251 DEB         
1 38486U 93036BTW 26061.34890227  .00019484  00000+0  27828-2 0  9994
2 38486  73.9396  48.4189 0030894 186.4811 242.4245 14.76329034766084
COSMOS 2251 DEB         
1 38487U 93036BTX 26059.73246497  .00064261  00000+0  24803-2 0  9992
2 38487  73.9681 229.3494 0021638  13.6287 346.5492 15.25753352679863
COSMOS 2251 DEB         
1 39109U 93036BTY 26055.77105705  .00002345  00000+0  37457-3 0  9995
2 39109  74.0411  81.3577 0057703 169.1149 309.3953 14.71359668662629
COSMOS 2251 DEB         
1 39546U 93036BUC 26063.10510888  .00020104  00000+0  18190-2 0  9993
2 39546  73.9997 332.7214 0040330 114.7885 245.7503 14.94741578656518
COSMOS 2251 DEB         
1 39547U 93036BUD 26049.23373905  .00051628  00000+0  29907-2 0  9992
2 39547  73.9998 239.3113 0003046 315.2619 161.0018 15.11947293650423
COSMOS 2251 DEB         
1 39553U 93036BUK 26059.06380821  .00001814  00000+0  10340-2 0  9999
2 39553  74.0287 196.0355 0206744 313.8074  44.6119 14.00266341766992
COSMOS 2251 DEB         
1 39554U 93036BUL 26063.08428179  .00110533  00000+0  48513-2 0  9998
2 39554  74.0078  95.0529 0012614 271.4952 120.4059 15.21339433656178
COSMOS 2251 DEB         
1 39585U 93036BUQ 26038.14491554  .00001509  00000+0  31897-3 0  9998
2 39585  74.0403 193.9274 0067769 300.7751  58.6753 14.58844351633439
